start=new Date('2022-02-10T00:00:00.000Z').valueOf();
sats=[{"NORAD_CAT_ID":"48107","SEMIMAJOR_AXIS":"6925.363","RA_OF_ASC_NODE":"356.4700","APOAPSIS":"548.249","MEAN_MOTION":"15.06395291","EPHEMERIS_TYPE":"0","PERIOD":"95.592","MEAN_ELEMENT_THEORY":"SGP4","MEAN_MOTION_DDOT":"0.0000000000000","TLE_LINE2":"2 48107  53.0567 356.4700 0001475  75.8358 284.2795 15.06395291 47858","LAUNCH_DATE":"2021-04-07","FILE":"3296086","PERIAPSIS":"546.206","MEAN_MOTION_DOT":"0.00004539","REV_AT_EPOCH":"4785","INCLINATION":"53.0567","EPOCH":"2022-02-09T13:59:47.133888","REF_FRAME":"TEME","OBJECT_ID":"2021-027R","DECAY_DATE":null,"CLASSIFICATION_TYPE":"U","OBJECT_NAME":"STARLINK-2443","ECCENTRICITY":"0.00014750","GP_ID":"195645064","RCS_SIZE":"LARGE","TIME_SYSTEM":"UTC","SITE":"AFETR","TLE_LINE1":"1 48107U 21027R   22040.58318442  .00004539  00000-0  32346-3 0  9997","MEAN_ANOMALY":"284.2795","ELEMENT_SET_NO":"999","CENTER_NAME":"EARTH","BSTAR":"0.00032346000000","OBJECT_TYPE":"PAYLOAD","COUNTRY_CODE":"US","ARG_OF_PERICENTER":"75.8358"},{"ECCENTRICITY":"0.00014910","OBJECT_NAME":"STARLINK-2444","CLASSIFICATION_TYPE":"U","GP_ID":"195644727","MEAN_ANOMALY":"293.1176","TLE_LINE1":"1 48108U 21027S   22040.62279338  .00003926  00000-0  28228-3 0  9996","SITE":"AFETR","TIME_SYSTEM":"UTC","RCS_SIZE":"LARGE","ELEMENT_SET_NO":"999","OBJECT_TYPE":"PAYLOAD","BSTAR":"0.00028228000000","CENTER_NAME":"EARTH","ARG_OF_PERICENTER":"66.9970","COUNTRY_CODE":"US","SEMIMAJOR_AXIS":"6925.332","NORAD_CAT_ID":"48108","RA_OF_ASC_NODE":"6.3042","MEAN_MOTION":"15.06405363","APOAPSIS":"548.230","TLE_LINE2":"2 48108  53.0554   6.3042 0001491  66.9970 293.1176 15.06405363 47724","MEAN_MOTION_DDOT":"0.0000000000000","MEAN_ELEMENT_THEORY":"SGP4","PERIOD":"95.592","EPHEMERIS_TYPE":"0","MEAN_MOTION_DOT":"0.00003926","PERIAPSIS":"546.165","FILE":"3296086","LAUNCH_DATE":"2021-04-07","EPOCH":"2022-02-09T14:56:49.348032","INCLINATION":"53.0554","REV_AT_EPOCH":"4772","REF_FRAME":"TEME","OBJECT_ID":"2021-027S","DECAY_DATE":null},{"MEAN_MOTION":"15.06429183","APOAPSIS":"548.347","SEMIMAJOR_AXIS":"6925.259","NORAD_CAT_ID":"48109","RA_OF_ASC_NODE":"16.2344","PERIAPSIS":"545.901","MEAN_MOTION_DOT":"0.00013555","LAUNCH_DATE":"2021-04-07","FILE":"3296086","MEAN_MOTION_DDOT":"0.0000000000000","TLE_LINE2":"2 48109  53.0560  16.2344 0001766  67.5419 292.5757 15.06429183 47585","EPHEMERIS_TYPE":"0","PERIOD":"95.590","MEAN_ELEMENT_THEORY":"SGP4","REF_FRAME":"TEME","OBJECT_ID":"2021-027T","EPOCH":"2022-02-09T15:16:43.507488","REV_AT_EPOCH":"4758","INCLINATION":"53.0560","DECAY_DATE":null,"ECCENTRICITY":"0.00017660","CLASSIFICATION_TYPE":"U","OBJECT_NAME":"STARLINK-2445","GP_ID":"195644732","ELEMENT_SET_NO":"999","SITE":"AFETR","TLE_LINE1":"1 48109U 21027T   22040.63661467  .00013555  00000-0  92638-3 0  9991","MEAN_ANOMALY":"292.5757","RCS_SIZE":"LARGE","TIME_SYSTEM":"UTC","ARG_OF_PERICENTER":"67.5419","COUNTRY_CODE":"US","BSTAR":"0.00092638000000","OBJECT_TYPE":"PAYLOAD","CENTER_NAME":"EARTH"},{"CLASSIFICATION_TYPE":"U","OBJECT_NAME":"STARLINK-2447","ECCENTRICITY":"0.00014370","GP_ID":"195639337","TIME_SYSTEM":"UTC","RCS_SIZE":"LARGE","MEAN_ANOMALY":"288.4041","TLE_LINE1":"1 48110U 21027U   22040.27999932  .00002517  00000-0  18783-3 0  9999","SITE":"AFETR","ELEMENT_SET_NO":"999","CENTER_NAME":"EARTH","OBJECT_TYPE":"PAYLOAD","BSTAR":"0.00018783000000","COUNTRY_CODE":"US","ARG_OF_PERICENTER":"71.7105","SEMIMAJOR_AXIS":"6925.360","NORAD_CAT_ID":"48110","RA_OF_ASC_NODE":"7.8373","MEAN_MOTION":"15.06396137","APOAPSIS":"548.221","PERIOD":"95.592","MEAN_ELEMENT_THEORY":"SGP4","EPHEMERIS_TYPE":"0","TLE_LINE2":"2 48110  53.0570   7.8373 0001437  71.7105 288.4041 15.06396137 48077","MEAN_MOTION_DDOT":"0.0000000000000","FILE":"3295989","LAUNCH_DATE":"2021-04-07","MEAN_MOTION_DOT":"0.00002517","PERIAPSIS":"546.230","INCLINATION":"53.0570","REV_AT_EPOCH":"4807","EPOCH":"2022-02-09T06:43:11.941248","REF_FRAME":"TEME","OBJECT_ID":"2021-027U","DECAY_DATE":null},{"DECAY_DATE":null,"INCLINATION":"53.0553","REV_AT_EPOCH":"4809","EPOCH":"2022-02-09T09:47:36.703680","REF_FRAME":"TEME","OBJECT_ID":"2021-027V","MEAN_ELEMENT_THEORY":"SGP4","PERIOD":"95.592","EPHEMERIS_TYPE":"0","TLE_LINE2":"2 48111  53.0553   7.2676 0001346  77.9486 282.1653 15.06404019 48099","MEAN_MOTION_DDOT":"0.0000000000000","FILE":"3295989","LAUNCH_DATE":"2021-04-07","MEAN_MOTION_DOT":"0.00003898","PERIAPSIS":"546.269","SEMIMAJOR_AXIS":"6925.336","NORAD_CAT_ID":"48111","RA_OF_ASC_NODE":"7.2676","APOAPSIS":"548.133","MEAN_MOTION":"15.06404019","CENTER_NAME":"EARTH","OBJECT_TYPE":"PAYLOAD","BSTAR":"0.00028038000000","COUNTRY_CODE":"US","ARG_OF_PERICENTER":"77.9486","TIME_SYSTEM":"UTC","RCS_SIZE":"LARGE","MEAN_ANOMALY":"282.1653","SITE":"AFETR","TLE_LINE1":"1 48111U 21027V   22040.40806370  .00003898  00000-0  28038-3 0  9995","ELEMENT_SET_NO":"999","GP_ID":"195639587","CLASSIFICATION_TYPE":"U","OBJECT_NAME":"STARLINK-2448","ECCENTRICITY":"0.00013460"},{"GP_ID":"195640839","ECCENTRICITY":"0.00015450","OBJECT_NAME":"STARLINK-2449","CLASSIFICATION_TYPE":"U","OBJECT_TYPE":"PAYLOAD","BSTAR":"0.00017170000000","CENTER_NAME":"EARTH","ARG_OF_PERICENTER":"73.1148","COUNTRY_CODE":"US","MEAN_ANOMALY":"287.0010","SITE":"AFETR","TLE_LINE1":"1 48112U 21027W   22040.44907767  .00002276  00000-0  17170-3 0  9996","TIME_SYSTEM":"UTC","RCS_SIZE":"LARGE","ELEMENT_SET_NO":"999","TLE_LINE2":"2 48112  53.0553  22.0806 0001545  73.1148 287.0010 15.06391012 47889","MEAN_MOTION_DDOT":"0.0000000000000","MEAN_ELEMENT_THEORY":"SGP4","PERIOD":"95.593","EPHEMERIS_TYPE":"0","MEAN_MOTION_DOT":"0.00002276","PERIAPSIS":"546.171","FILE":"3295989","LAUNCH_DATE":"2021-04-07","SEMIMAJOR_AXIS":"6925.376","NORAD_CAT_ID":"48112","RA_OF_ASC_NODE":"22.0806","APOAPSIS":"548.311","MEAN_MOTION":"15.06391012","DECAY_DATE":null,"EPOCH":"2022-02-09T10:46:40.310688","INCLINATION":"53.0553","REV_AT_EPOCH":"4788","REF_FRAME":"TEME","OBJECT_ID":"2021-027W"},{"DECAY_DATE":null,"OBJECT_ID":"2021-027X","REF_FRAME":"TEME","INCLINATION":"53.0574","REV_AT_EPOCH":"4792","EPOCH":"2022-02-09T08:01:29.676000","FILE":"3295989","LAUNCH_DATE":"2021-04-07","MEAN_MOTION_DOT":"0.00003957","PERIAPSIS":"546.069","MEAN_ELEMENT_THEORY":"SGP4","PERIOD":"95.592","EPHEMERIS_TYPE":"0","TLE_LINE2":"2 48113  53.0574  17.6013 0001659  74.5075 285.6097 15.06398627 47926","MEAN_MOTION_DDOT":"0.0000000000000","MEAN_MOTION":"15.06398627","APOAPSIS":"548.367","SEMIMAJOR_AXIS":"6925.353","NORAD_CAT_ID":"48113","RA_OF_ASC_NODE":"17.6013","COUNTRY_CODE":"US","ARG_OF_PERICENTER":"74.5075","CENTER_NAME":"EARTH","OBJECT_TYPE":"PAYLOAD","BSTAR":"0.00028441000000","ELEMENT_SET_NO":"999","TIME_SYSTEM":"UTC","RCS_SIZE":"LARGE","MEAN_ANOMALY":"285.6097","SITE":"AFETR","TLE_LINE1":"1 48113U 21027X   22040.33437125  .00003957  00000-0  28441-3 0  9991","GP_ID":"195640589","CLASSIFICATION_TYPE":"U","OBJECT_NAME":"STARLINK-2450","ECCENTRICITY":"0.00016590"},{"OBJECT_TYPE":"PAYLOAD","BSTAR":"0.00046403000000","CENTER_NAME":"EARTH","ARG_OF_PERICENTER":"78.8416","COUNTRY_CODE":"US","MEAN_ANOMALY":"281.2742","SITE":"AFETR","TLE_LINE1":"1 48114U 21027Y   22040.29517794  .00006638  00000-0  46403-3 0  9995","TIME_SYSTEM":"UTC","RCS_SIZE":"LARGE","ELEMENT_SET_NO":"999","GP_ID":"195639838","ECCENTRICITY":"0.00015010","CLASSIFICATION_TYPE":"U","OBJECT_NAME":"STARLINK-2451","DECAY_DATE":null,"EPOCH":"2022-02-09T07:05:03.374016","INCLINATION":"53.0548","REV_AT_EPOCH":"4800","OBJECT_ID":"2021-027Y","REF_FRAME":"TEME","TLE_LINE2":"2 48114  53.0548  12.7836 0001501  78.8416 281.2742 15.06404511 48008","MEAN_MOTION_DDOT":"0.0000000000000","PERIOD":"95.592","MEAN_ELEMENT_THEORY":"SGP4","EPHEMERIS_TYPE":"0","MEAN_MOTION_DOT":"0.00006638","PERIAPSIS":"546.160","FILE":"3295989","LAUNCH_DATE":"2021-04-07","SEMIMAJOR_AXIS":"6925.335","NORAD_CAT_ID":"48114","RA_OF_ASC_NODE":"12.7836","MEAN_MOTION":"15.06404511","APOAPSIS":"548.239"},{"CLASSIFICATION_TYPE":"U","OBJECT_NAME":"STARLINK-2452","ECCENTRICITY":"0.00014590","GP_ID":"195640088","RCS_SIZE":"LARGE","TIME_SYSTEM":"UTC","TLE_LINE1":"1 48115U 21027Z   22040.58867973  .00005072  00000-0  35903-3 0  9999","SITE":"AFETR","MEAN_ANOMALY":"278.3780","ELEMENT_SET_NO":"999","CENTER_NAME":"EARTH","BSTAR":"0.00035903000000","OBJECT_TYPE":"PAYLOAD","COUNTRY_CODE":"US","ARG_OF_PERICENTER":"81.7374","NORAD_CAT_ID":"48115","SEMIMAJOR_AXIS":"6925.302","RA_OF_ASC_NODE":"6.4534","MEAN_MOTION":"15.06415185","APOAPSIS":"548.177","EPHEMERIS_TYPE":"0","MEAN_ELEMENT_THEORY":"SGP4","PERIOD":"95.591","MEAN_MOTION_DDOT":"0.0000000000000","TLE_LINE2":"2 48115  53.0563   6.4534 0001459  81.7374 278.3780 15.06415185 48119","LAUNCH_DATE":"2021-04-07","FILE":"3295989","PERIAPSIS":"546.157","MEAN_MOTION_DOT":"0.00005072","REV_AT_EPOCH":"4811","INCLINATION":"53.0563","EPOCH":"2022-02-09T14:07:41.928672","REF_FRAME":"TEME","OBJECT_ID":"2021-027Z","DECAY_DATE":null},{"TIME_SYSTEM":"UTC","RCS_SIZE":"LARGE","MEAN_ANOMALY":"297.4553","SITE":"AFETR","TLE_LINE1":"1 48116U 21027AA  22040.39704798  .00005824  00000-0  40959-3 0  9996","ELEMENT_SET_NO":"999","CENTER_NAME":"EARTH","OBJECT_TYPE":"PAYLOAD","BSTAR":"0.00040959000000","COUNTRY_CODE":"US","ARG_OF_PERICENTER":"62.6596","OBJECT_NAME":"STARLINK-2454","CLASSIFICATION_TYPE":"U","ECCENTRICITY":"0.00015730","GP_ID":"195640339","INCLINATION":"53.0538","REV_AT_EPOCH":"4794","EPOCH":"2022-02-09T09:31:44.945472","REF_FRAME":"TEME","OBJECT_ID":"2021-027AA","DECAY_DATE":null,"SEMIMAJOR_AXIS":"6925.350","NORAD_CAT_ID":"48116","RA_OF_ASC_NODE":"17.3103","MEAN_MOTION":"15.06399434","APOAPSIS":"548.305","MEAN_ELEMENT_THEORY":"SGP4","PERIOD":"95.592","EPHEMERIS_TYPE":"0","TLE_LINE2":"2 48116  53.0538  17.3103 0001573  62.6596 297.4553 15.06399434 47944","MEAN_MOTION_DDOT":"0.0000000000000","FILE":"3295989","LAUNCH_DATE":"2021-04-07","MEAN_MOTION_DOT":"0.00005824","PERIAPSIS":"546.126"}];
